ONEWEB-0536             
1 54148U 22138AM  23059.36477073  .00004014  00000+0  68007-3 0  9996
2 54148  86.9038 169.4980 0009691 197.0229 163.0663 14.69043851 18960
ONEWEB-0536             
1 54148U 22138AM  23059.36477073  .00004014  00000+0  68007-3 0  9996
2 54148  86.9038 169.4980 0009691 197.0229 163.0663 14.69043851 19826
ONEWEB-0536             
1 54148U 22138AM  23059.84158525  .00002768  00000+0  46777-3 0  9991
2 54148  86.9037 169.3170 0009760 195.3135 164.7787 14.69043761 19037
ONEWEB-0536             
1 54148U 22138AM  23060.65897684  .00002801  00000+0  47333-3 0  9995
2 54148  86.9039 169.0067 0009896 192.1379 167.9600 14.69050252 19151
ONEWEB-0536             
1 54148U 22138AM  23060.65897684  .00002801  00000+0  47333-3 0  9995
2 54148  86.9039 169.0067 0009896 192.1379 167.9600 14.69050252 20018
ONEWEB-0536             
1 54148U 22138AM  23061.81690280  .00015287  00000+0  25925-2 0  9991
2 54148  86.9042 168.5669 0011019 193.5384 166.5538 14.69117146 19328
ONEWEB-0536             
1 54148U 22138AM  23062.29373025  .00003181  00000+0  53788-3 0  9998
2 54148  86.9038 168.3861 0009254 194.0605 166.0355 14.69073329 19398
ONEWEB-0536             
1 54148U 22138AM  23062.29373025  .00003181  00000+0  53788-3 0  9998
2 54148  86.9038 168.3861 0009254 194.0605 166.0355 14.69073329 20255
ONEWEB-0536             
1 54148U 22138AM  23062.83864574  .00000381  00000+0  60899-4 0  9993
2 54148  86.9039 168.1788 0010095 184.1445 175.9689 14.69077504 19479
